NORAD_CAT_ID,OBJECT_NAME,OBJECT_TYPE,EPOCH,MEAN_MOTION,ECCENTRICITY,INCLINATION,RA_OF_ASC_NODE,ARG_OF_PERICENTER,MEAN_ANOMALY,BSTAR,MEAN_MOTION_DOT,MEAN_MOTION_DDOT,TLE_LINE0,TLE_LINE1,TLE_LINE2,SEMIMAJOR_AXIS,PERIOD,APOGEE,PERIGEE,DECAYED
52632.0,STARLINK-3995,PAYLOAD,2023-09-09 14:14:38,15.0883792,0.0001328,53.2192,43.6792,92.2695,267.8449,4.1271e-05,3.69e-06,0.0,0 STARLINK-3995,1 52632U 22052AL  23252.59350169  .00000369  00000-0  41271-4 0  9998,2 52632  53.2192  43.6792 0001328  92.2695 267.8449 15.08837920 73306,6917.887,95.438,540.67,538.833,0.0
52632.0,STARLINK-3995,PAYLOAD,2023-09-10 14:05:25,15.08841279,0.0001314,53.2191,39.2191,93.7956,266.3186,9.0132e-05,1.147e-05,0.0,0 STARLINK-3995,1 52632U 22052AL  23253.58710083  .00001147  00000-0  90132-4 0  9998,2 52632  53.2191  39.2191 0001314  93.7956 266.3186 15.08841279 73450,6917.876,95.437,540.65,538.832,0.0
52632.0,STARLINK-3995,PAYLOAD,2023-09-10 17:16:11,15.0884673,0.0001298,53.2193,38.6241,91.714,268.4001,0.00010363,1.362e-05,0.0,0 STARLINK-3995,1 52632U 22052AL  23253.71957742  .00001362  00000-0  10363-3 0  9994,2 52632  53.2193  38.6241 0001298  91.7140 268.4001 15.08846730 73844,6917.86,95.437,540.623,538.827,0.0
52632.0,STARLINK-3995,PAYLOAD,2023-09-11 13:56:12,15.08839401,0.0001391,53.2195,34.7582,81.8878,278.2272,6.7939e-05,7.93e-06,0.0,0 STARLINK-3995,1 52632U 22052AL  23254.58070446  .00000793  00000-0  67939-4 0  9996,2 52632  53.2195  34.7582 0001391  81.8878 278.2272 15.08839401 73603,6917.882,95.438,540.709,538.785,0.0
52632.0,STARLINK-3995,PAYLOAD,2023-09-11 17:06:58,15.08842257,0.0001348,53.2192,34.1632,85.705,274.4096,0.00010734,1.421e-05,0.0,0 STARLINK-3995,1 52632U 22052AL  23254.71318135  .00001421  00000-0  10734-3 0  9990,2 52632  53.2192  34.1632 0001348  85.7050 274.4096 15.08842257 73994,6917.873,95.437,540.671,538.806,0.0
52632.0,STARLINK-3995,PAYLOAD,2023-09-12 02:39:17,15.08833475,3.26e-05,53.2188,32.3798,97.8138,262.2891,-2.5692e-05,-6.96e-06,0.0,0 STARLINK-3995,1 52632U 22052AL  23255.11062116 -.00000696  00000-0 -25692-4 0  9995,2 52632  53.2188  32.3798 0000326  97.8138 262.2891 15.08833475 74056,6917.9,95.438,539.991,539.54,0.0
52632.0,STARLINK-3995,PAYLOAD,2023-09-12 13:46:59,15.08837062,9.83e-05,53.2181,30.2977,82.399,277.7114,6.2001e-05,6.99e-06,0.0,0 STARLINK-3995,1 52632U 22052AL  23255.57430359  .00000699  00000-0  62001-4 0  9999,2 52632  53.2181  30.2977 0000983  82.3990 277.7114 15.08837062 73750,6917.889,95.438,540.434,539.074,0.0
52632.0,STARLINK-3995,PAYLOAD,2023-09-12 16:57:45,15.08847941,0.0001396,53.2182,29.7009,84.2337,275.8814,0.00015273,2.144e-05,0.0,0 STARLINK-3995,1 52632U 22052AL  23255.70677928  .00002144  00000-0  15273-3 0  9994,2 52632  53.2182  29.7009 0001396  84.2337 275.8814 15.08847941 74142,6917.856,95.437,540.687,538.755,0.0
52632.0,STARLINK-3995,PAYLOAD,2023-09-13 13:37:46,15.08853611,0.0001454,53.2186,25.8379,88.7059,271.41,0.00033441,5.04e-05,0.0,0 STARLINK-3995,1 52632U 22052AL  23256.56789579  .00005040  00000-0  33441-3 0  9990,2 52632  53.2186  25.8379 0001454  88.7059 271.4100 15.08853611 73902,6917.839,95.437,540.71,538.698,0.0
52632.0,STARLINK-3995,PAYLOAD,2023-09-13 18:23:55,15.08860712,0.0001467,53.2183,24.9438,94.3261,265.7899,0.00039744,6.046e-05,0.0,0 STARLINK-3995,1 52632U 22052AL  23256.76661114  .00006046  00000-0  39744-3 0  9995,2 52632  53.2183  24.9438 0001467  94.3261 265.7899 15.08860712 74303,6917.817,95.436,540.697,538.667,0.0
52632.0,STARLINK-3995,PAYLOAD,2023-09-14 08:42:24,15.0882864,0.0001366,53.2187,22.2659,107.9146,252.1996,-0.00011513,-2.119e-05,0.0,0 STARLINK-3995,1 52632U 22052AL  23257.36278553 -.00002119  00000-0 -11513-3 0  9996,2 52632  53.2187  22.2659 0001366 107.9146 252.1996 15.08828640 74395,6917.915,95.438,540.725,538.835,0.0
52632.0,STARLINK-3995,PAYLOAD,2023-09-14 13:28:34,15.08823749,0.0001339,53.2185,21.3766,94.5123,265.6022,-0.00025735,-4.379e-05,0.0,0 STARLINK-3995,1 52632U 22052AL  23257.56150812 -.00004379  00000-0 -25735-3 0  9996,2 52632  53.2185  21.3766 0001339  94.5123 265.6022 15.08823749 74055,6917.93,95.439,540.721,538.869,0.0
52632.0,STARLINK-3995,PAYLOAD,2023-09-14 15:03:57,15.08824615,0.0001361,53.2186,21.0784,102.686,257.4285,-0.0002048,-3.544e-05,0.0,0 STARLINK-3995,1 52632U 22052AL  23257.62774846 -.00003544  00000-0 -20480-3 0  9997,2 52632  53.2186  21.0784 0001361 102.6860 257.4285 15.08824615 74061,6917.927,95.439,540.734,538.851,0.0
52632.0,STARLINK-3995,PAYLOAD,2023-09-15 13:19:21,15.08846287,0.0001185,53.2186,16.9154,86.7861,273.3267,0.00049905,7.665e-05,0.0,0 STARLINK-3995,1 52632U 22052AL  23258.55510830  .00007665  00000-0  49905-3 0  9990,2 52632  53.2186  16.9154 0001185  86.7861 273.3267 15.08846287 74204,6917.861,95.437,540.546,538.906,0.0
52632.0,STARLINK-3995,PAYLOAD,2023-09-15 18:05:30,15.08859031,0.0001291,53.2194,16.0222,105.8716,254.2418,0.0010135,0.00015887,0.0,0 STARLINK-3995,1 52632U 22052AL  23258.75382625  .00015887  00000-0  10135-2 0  9998,2 52632  53.2194  16.0222 0001291 105.8716 254.2418 15.08859031 74601,6917.822,95.436,540.58,538.794,0.0
52632.0,STARLINK-3995,PAYLOAD,2023-09-16 00:27:03,15.08852977,0.0001472,53.2206,14.8314,104.1436,255.972,0.00056358,8.696e-05,0.0,0 STARLINK-3995,1 52632U 22052AL  23259.01878569  .00008696  00000-0  56358-3 0  9993,2 52632  53.2206  14.8314 0001472 104.1436 255.9720 15.08852977 74645,6917.841,95.437,540.724,538.687,0.0
52632.0,STARLINK-3995,PAYLOAD,2023-09-16 13:10:08,15.08850485,0.0001302,53.2198,12.4587,102.4345,257.6793,0.00037366,5.666e-05,0.0,0 STARLINK-3995,1 52632U 22052AL  23259.54870628  .00005666  00000-0  37366-3 0  9991,2 52632  53.2198  12.4587 0001302 102.4345 257.6793 15.08850485 74352,6917.848,95.437,540.614,538.813,0.0
52632.0,STARLINK-3995,PAYLOAD,2023-09-17 00:17:50,15.088461,0.0001137,53.2188,10.3754,85.4701,274.6421,0.00094361,0.00014764,0.0,0 STARLINK-3995,1 52632U 22052AL  23260.01238854  .00014764  00000-0  94361-3 0  9991,2 52632  53.2188  10.3754 0001137  85.4701 274.6421 15.08846100 74790,6917.862,95.437,540.513,538.94,0.0
52632.0,STARLINK-3995,PAYLOAD,2023-09-17 13:00:55,15.08851912,0.0001302,53.2188,7.9977,95.5569,264.5572,0.00069803,0.00010842,0.0,0 STARLINK-3995,1 52632U 22052AL  23260.54230712  .00010842  00000-0  69803-3 0  9990,2 52632  53.2188   7.9977 0001302  95.5569 264.5572 15.08851912 74508,6917.844,95.437,540.61,538.808,0.0
52632.0,STARLINK-3995,PAYLOAD,2023-09-18 00:08:37,15.08849035,0.0001313,53.2186,5.9165,91.1862,268.928,0.0004101,6.246e-05,0.0,0 STARLINK-3995,1 52632U 22052AL  23261.00598666  .00006246  00000-0  41010-3 0  9990,2 52632  53.2186   5.9165 0001313  91.1862 268.9280 15.08849035 74948,6917.853,95.437,540.626,538.809,0.0
52632.0,STARLINK-3995,PAYLOAD,2023-09-18 12:51:42,15.08841799,0.0001613,53.2187,3.5378,87.5729,272.5448,0.00015167,2.127e-05,0.0,0 STARLINK-3995,1 52632U 22052AL  23261.53590897  .00002127  00000-0  15167-3 0  9994,2 52632  53.2187   3.5378 0001613  87.5729 272.5448 15.08841799 74657,6917.875,95.437,540.856,538.624,0.0
52632.0,STARLINK-3995,PAYLOAD,2023-09-18 14:27:05,15.08846774,0.0001493,53.2185,3.2399,85.321,274.7953,0.00026125,3.873e-05,0.0,0 STARLINK-3995,1 52632U 22052AL  23261.60214773  .00003873  00000-0  26125-3 0  9993,2 52632  53.2185   3.2399 0001493  85.3210 274.7953 15.08846774 75038,6917.86,95.437,540.758,538.692,0.0
52632.0,STARLINK-3995,PAYLOAD,2023-09-19 14:17:51,15.0887805,0.0001453,53.2177,358.7793,88.5129,271.6029,0.00098045,0.00015366,0.0,0 STARLINK-3995,1 52632U 22052AL  23262.59573261  .00015366  00000-0  98045-3 0  9992,2 52632  53.2177 358.7793 0001453  88.5129 271.6029 15.08878050 75183,6917.764,95.435,540.634,538.624,0.0
52632.0,STARLINK-3995,PAYLOAD,2023-09-20 06:11:43,15.08826476,0.0001652,53.2174,355.8067,102.4786,257.6391,-0.00028381,-4.8e-05,0.0,0 STARLINK-3995,1 52632U 22052AL  23263.25814531 -.00004800  00000-0 -28381-3 0  9993,2 52632  53.2174 355.8067 0001652 102.4786 257.6391 15.08826476 75280,6917.922,95.438,540.93,538.644,0.0
52632.0,STARLINK-3995,PAYLOAD,2023-09-20 12:33:17,15.08809196,0.0001577,53.2192,354.6129,121.7321,238.3825,-0.00027104,-4.595e-05,0.0,0 STARLINK-3995,1 52632U 22052AL  23263.52311416 -.00004595  00000-0 -27104-3 0  9990,2 52632  53.2192 354.6129 0001577 121.7321 238.3825 15.08809196 74952,6917.975,95.44,540.931,538.749,0.0
52632.0,STARLINK-3995,PAYLOAD,2023-09-20 14:08:40,15.08809194,0.0001438,53.2182,354.3164,115.6453,244.4688,-0.00049088,-8.085e-05,0.0,0 STARLINK-3995,1 52632U 22052AL  23263.58935652 -.00008085  00000-0 -49088-3 0  9993,2 52632  53.2182 354.3164 0001438 115.6453 244.4688 15.08809194 75337,6917.975,95.44,540.834,538.845,0.0
52632.0,STARLINK-3995,PAYLOAD,2023-09-21 10:48:42,15.08825511,0.0001201,53.2175,350.4548,106.2989,253.8135,0.00068467,0.00010621,0.0,0 STARLINK-3995,1 52632U 22052AL  23264.45049126  .00010621  00000-0  68467-3 0  9991,2 52632  53.2175 350.4548 0001201 106.2989 253.8135 15.08825511 75466,6917.925,95.438,540.621,538.959,0.0
52632.0,STARLINK-3995,PAYLOAD,2023-09-21 12:24:05,15.08833653,0.0001431,53.2181,350.1543,117.8034,242.3103,0.0010458,0.00016392,0.0,0 STARLINK-3995,1 52632U 22052AL  23264.51673009  .00016392  00000-0  10458-2 0  9998,2 52632  53.2181 350.1543 0001431 117.8034 242.3103 15.08833653 75104,6917.9,95.438,540.755,538.775,0.0
52632.0,STARLINK-3995,PAYLOAD,2023-09-21 15:34:51,15.08843,0.0001502,53.2184,349.5583,119.8063,240.3078,0.0012468,0.00019612,0.0,0 STARLINK-3995,1 52632U 22052AL  23264.64921002  .00019612  00000-0  12468-2 0  9992,2 52632  53.2184 349.5583 0001502 119.8063 240.3078 15.08843000 75494,6917.871,95.437,540.775,538.697,0.0
52632.0,STARLINK-3995,PAYLOAD,2023-09-22 10:39:28,15.08872438,0.0001428,53.218,345.9909,113.8122,246.302,0.0012932,0.00020371,0.0,0 STARLINK-3995,1 52632U 22052AL  23265.44408094  .00020371  00000-0  12932-2 0  9992,2 52632  53.2180 345.9909 0001428 113.8122 246.3020 15.08872438 75242,6917.781,95.436,540.634,538.658,0.0
